[{"OBJECT_NAME":"GLOBALSTAR M045","OBJECT_ID":"1999-019A","EPOCH":"2026-03-03T01:51:42.047136","MEAN_MOTION":12.27073597,"ECCENTRICITY":0.00010075,"INCLINATION":51.9968,"RA_OF_ASC_NODE":287.3713,"ARG_OF_PERICENTER":68.3901,"MEAN_ANOMALY":97.9416,"EPHEMERIS_TYPE":0,"CLASSIFICATION_TYPE":"U","NORAD_CAT_ID":25676,"ELEMENT_SET_NO":999,"REV_AT_EPOCH":22517,"BSTAR":0.00053934972,"MEAN_MOTION_DOT":-3.2e-7,"MEAN_MOTION_DDOT":0},{"OBJECT_NAME":"GLOBALSTAR M019","OBJECT_ID":"1999-019B","EPOCH":"2026-03-03T10:01:28.835040","MEAN_MOTION":12.13886791,"ECCENTRICITY":0.00017024,"INCLINATION":51.9878,"RA_OF_ASC_NODE":75.0079,"ARG_OF_PERICENTER":125.4557,"MEAN_ANOMALY":22.2532,"EPHEMERIS_TYPE":0,"CLASSIFICATION_TYPE":"U","NORAD_CAT_ID":25677,"ELEMENT_SET_NO":999,"REV_AT_EPOCH":21662,"BSTAR":-0.00028586465,"MEAN_MOTION_DOT":-1.17e-6,"MEAN_MOTION_DDOT":0},{"OBJECT_NAME":"GLOBALSTAR M044","OBJECT_ID":"1999-019C","EPOCH":"2026-03-03T12:34:52.383360","MEAN_MOTION":11.9026251,"ECCENTRICITY":0.0006212,"INCLINATION":51.9974,"RA_OF_ASC_NODE":58.5124,"ARG_OF_PERICENTER":177.6258,"MEAN_ANOMALY":332.6952,"EPHEMERIS_TYPE":0,"CLASSIFICATION_TYPE":"U","NORAD_CAT_ID":25678,"ELEMENT_SET_NO":999,"REV_AT_EPOCH":20220,"BSTAR":6.8845e-5,"MEAN_MOTION_DOT":-7.9e-7,"MEAN_MOTION_DDOT":0},{"OBJECT_NAME":"GLOBALSTAR M042","OBJECT_ID":"1999-019D","EPOCH":"2026-03-03T08:35:38.876640","MEAN_MOTION":12.22094522,"ECCENTRICITY":0.00030856,"INCLINATION":52.0032,"RA_OF_ASC_NODE":39.2966,"ARG_OF_PERICENTER":110.1817,"MEAN_ANOMALY":56.4371,"EPHEMERIS_TYPE":0,"CLASSIFICATION_TYPE":"U","NORAD_CAT_ID":25679,"ELEMENT_SET_NO":999,"REV_AT_EPOCH":21694,"BSTAR":-0.00017962925,"MEAN_MOTION_DOT":-1.11e-6,"MEAN_MOTION_DDOT":0},{"OBJECT_NAME":"GLOBALSTAR M025","OBJECT_ID":"1999-031A","EPOCH":"2026-03-03T14:20:34.915776","MEAN_MOTION":11.22560559,"ECCENTRICITY":0.0001757,"INCLINATION":51.9807,"RA_OF_ASC_NODE":278.3294,"ARG_OF_PERICENTER":185.5599,"MEAN_ANOMALY":207.9506,"EPHEMERIS_TYPE":0,"CLASSIFICATION_TYPE":"U","NORAD_CAT_ID":25770,"ELEMENT_SET_NO":999,"REV_AT_EPOCH":51084,"BSTAR":-2.2785e-5,"MEAN_MOTION_DOT":-6.8e-7,"MEAN_MOTION_DDOT":0},{"OBJECT_NAME":"GLOBALSTAR M049","OBJECT_ID":"1999-031B","EPOCH":"2026-03-03T15:45:31.266432","MEAN_MOTION":11.12122076,"ECCENTRICITY":0.000339,"INCLINATION":51.9908,"RA_OF_ASC_NODE":325.9931,"ARG_OF_PERICENTER":91.7211,"MEAN_ANOMALY":268.3974,"EPHEMERIS_TYPE":0,"CLASSIFICATION_TYPE":"U","NORAD_CAT_ID":25771,"ELEMENT_SET_NO":999,"REV_AT_EPOCH":14629,"BSTAR":-0.0017753,"MEAN_MOTION_DOT":-1.16e-6,"MEAN_MOTION_DDOT":0},{"OBJECT_NAME":"GLOBALSTAR M047","OBJECT_ID":"1999-031C","EPOCH":"2026-03-03T16:26:17.297952","MEAN_MOTION":11.31932483,"ECCENTRICITY":0.0016414,"INCLINATION":51.9839,"RA_OF_ASC_NODE":298.1079,"ARG_OF_PERICENTER":351.8171,"MEAN_ANOMALY":8.2365,"EPHEMERIS_TYPE":0,"CLASSIFICATION_TYPE":"U","NORAD_CAT_ID":25772,"ELEMENT_SET_NO":999,"REV_AT_EPOCH":50049,"BSTAR":0.00057452,"MEAN_MOTION_DOT":-4.9e-7,"MEAN_MOTION_DDOT":0},{"OBJECT_NAME":"GLOBALSTAR M052","OBJECT_ID":"1999-031D","EPOCH":"2026-03-03T09:51:47.490912","MEAN_MOTION":11.15063937,"ECCENTRICITY":0.00025663,"INCLINATION":51.9864,"RA_OF_ASC_NODE":71.5744,"ARG_OF_PERICENTER":236.8754,"MEAN_ANOMALY":272.5101,"EPHEMERIS_TYPE":0,"CLASSIFICATION_TYPE":"U","NORAD_CAT_ID":25773,"ELEMENT_SET_NO":999,"REV_AT_EPOCH":50742,"BSTAR":0.0017575327,"MEAN_MOTION_DOT":-1.4e-7,"MEAN_MOTION_DDOT":0},{"OBJECT_NAME":"GLOBALSTAR M035","OBJECT_ID":"1999-037A","EPOCH":"2026-03-03T16:22:21.610848","MEAN_MOTION":11.04541444,"ECCENTRICITY":0.0013926,"INCLINATION":51.9926,"RA_OF_ASC_NODE":196.2616,"ARG_OF_PERICENTER":46.8289,"MEAN_ANOMALY":55.1803,"EPHEMERIS_TYPE":0,"CLASSIFICATION_TYPE":"U","NORAD_CAT_ID":25851,"ELEMENT_SET_NO":999,"REV_AT_EPOCH":12493,"BSTAR":-0.0013565,"MEAN_MOTION_DOT":-1.0e-6,"MEAN_MOTION_DDOT":0},{"OBJECT_NAME":"GLOBALSTAR M032","OBJECT_ID":"1999-037B","EPOCH":"2026-03-03T04:34:24.370176","MEAN_MOTION":11.19068123,"ECCENTRICITY":0.00123789,"INCLINATION":51.9999,"RA_OF_ASC_NODE":4.6888,"ARG_OF_PERICENTER":243.5229,"MEAN_ANOMALY":116.4302,"EPHEMERIS_TYPE":0,"CLASSIFICATION_TYPE":"U","NORAD_CAT_ID":25852,"ELEMENT_SET_NO":999,"REV_AT_EPOCH":16378,"BSTAR":0.0014146732,"MEAN_MOTION_DOT":-2.3e-7,"MEAN_MOTION_DDOT":0},{"OBJECT_NAME":"GLOBALSTAR M051","OBJECT_ID":"1999-037C","EPOCH":"2026-03-03T08:31:03.021312","MEAN_MOTION":11.42200291,"ECCENTRICITY":7.513e-5,"INCLINATION":51.978,"RA_OF_ASC_NODE":135.6813,"ARG_OF_PERICENTER":131.0282,"MEAN_ANOMALY":229.0594,"EPHEMERIS_TYPE":0,"CLASSIFICATION_TYPE":"U","NORAD_CAT_ID":25853,"ELEMENT_SET_NO":999,"REV_AT_EPOCH":16200,"BSTAR":0.00043065477,"MEAN_MOTION_DOT":-5.4e-7,"MEAN_MOTION_DDOT":0},{"OBJECT_NAME":"GLOBALSTAR M030","OBJECT_ID":"1999-037D","EPOCH":"2026-03-02T23:52:26.698944","MEAN_MOTION":11.55104172,"ECCENTRICITY":0.00042122,"INCLINATION":51.9873,"RA_OF_ASC_NODE":286.1983,"ARG_OF_PERICENTER":129.9466,"MEAN_ANOMALY":230.1721,"EPHEMERIS_TYPE":0,"CLASSIFICATION_TYPE":"U","NORAD_CAT_ID":25854,"ELEMENT_SET_NO":999,"REV_AT_EPOCH":17995,"BSTAR":-0.00050406451,"MEAN_MOTION_DOT":-9.9e-7,"MEAN_MOTION_DDOT":0},{"OBJECT_NAME":"GLOBALSTAR M048","OBJECT_ID":"1999-041A","EPOCH":"2026-03-03T09:32:09.733632","MEAN_MOTION":11.33862638,"ECCENTRICITY":0.00131849,"INCLINATION":51.9363,"RA_OF_ASC_NODE":80.6302,"ARG_OF_PERICENTER":272.6841,"MEAN_ANOMALY":196.4111,"EPHEMERIS_TYPE":0,"CLASSIFICATION_TYPE":"U","NORAD_CAT_ID":25872,"ELEMENT_SET_NO":999,"REV_AT_EPOCH":15438,"BSTAR":0.00058346767,"MEAN_MOTION_DOT":-4.8e-7,"MEAN_MOTION_DDOT":0},{"OBJECT_NAME":"GLOBALSTAR M026","OBJECT_ID":"1999-041B","EPOCH":"2026-03-03T02:09:28.131552","MEAN_MOTION":11.06841797,"ECCENTRICITY":0.00020929,"INCLINATION":52.0033,"RA_OF_ASC_NODE":312.8157,"ARG_OF_PERICENTER":357.2788,"MEAN_ANOMALY":152.5756,"EPHEMERIS_TYPE":0,"CLASSIFICATION_TYPE":"U","NORAD_CAT_ID":25873,"ELEMENT_SET_NO":999,"REV_AT_EPOCH":17715,"BSTAR":0.0039433092,"MEAN_MOTION_DOT":4.3e-7,"MEAN_MOTION_DDOT":0},{"OBJECT_NAME":"GLOBALSTAR M043","OBJECT_ID":"1999-041C","EPOCH":"2026-03-03T18:03:04.985856","MEAN_MOTION":11.25697858,"ECCENTRICITY":0.0013499,"INCLINATION":51.9381,"RA_OF_ASC_NODE":197.7735,"ARG_OF_PERICENTER":38.1418,"MEAN_ANOMALY":110.3055,"EPHEMERIS_TYPE":0,"CLASSIFICATION_TYPE":"U","NORAD_CAT_ID":25874,"ELEMENT_SET_NO":999,"REV_AT_EPOCH":15210,"BSTAR":-0.00013681,"MEAN_MOTION_DOT":-7.3e-7,"MEAN_MOTION_DDOT":0},{"OBJECT_NAME":"GLOBALSTAR M028","OBJECT_ID":"1999-041D","EPOCH":"2026-03-03T15:57:56.074176","MEAN_MOTION":12.50596776,"ECCENTRICITY":0.0062893,"INCLINATION":51.9621,"RA_OF_ASC_NODE":139.3374,"ARG_OF_PERICENTER":274.7523,"MEAN_ANOMALY":84.6158,"EPHEMERIS_TYPE":0,"CLASSIFICATION_TYPE":"U","NORAD_CAT_ID":25875,"ELEMENT_SET_NO":999,"REV_AT_EPOCH":22264,"BSTAR":0.00024091,"MEAN_MOTION_DOT":-6.3e-7,"MEAN_MOTION_DDOT":0}]
