GLOBALSTAR M045         
1 25676U 99019A   26062.07756999 -.00000032  00000+0  53935-3 0  9995
2 25676  51.9968 287.3713 0001007  68.3901  97.9416 12.27073597225178
GLOBALSTAR M019         
1 25677U 99019B   26062.41769485 -.00000117  00000+0 -28586-3 0  9997
2 25677  51.9878  75.0079 0001702 125.4557  22.2532 12.13886791216623
GLOBALSTAR M044         
1 25678U 99019C   26062.52421740 -.00000079  00000+0  68845-4 0  9998
2 25678  51.9974  58.5124 0006212 177.6258 332.6952 11.90262510202200
GLOBALSTAR M042         
1 25679U 99019D   26062.35808885 -.00000111  00000+0 -17963-3 0  9991
2 25679  52.0032  39.2966 0003085 110.1817  56.4371 12.22094522216940
GLOBALSTAR M025         
1 25770U 99031A   26062.59762634 -.00000068  00000+0 -22785-4 0  9994
2 25770  51.9807 278.3294 0001757 185.5599 207.9506 11.22560559510843
GLOBALSTAR M049         
1 25771U 99031B   26062.65661188 -.00000116  00000+0 -17753-2 0  9995
2 25771  51.9908 325.9931 0003390  91.7211 268.3974 11.12122076146298
GLOBALSTAR M047         
1 25772U 99031C   26062.68492243 -.00000049  00000+0  57452-3 0  9998
2 25772  51.9839 298.1079 0016414 351.8171   8.2365 11.31932483500495
GLOBALSTAR M052         
1 25773U 99031D   26062.41096633 -.00000014  00000+0  17575-2 0  9996
2 25773  51.9864  71.5744 0002566 236.8754 272.5101 11.15063937507423
GLOBALSTAR M035         
1 25851U 99037A   26062.68219457 -.00000100  00000+0 -13565-2 0  9991
2 25851  51.9926 196.2616 0013926  46.8289  55.1803 11.04541444124933
GLOBALSTAR M032         
1 25852U 99037B   26062.19055984 -.00000023  00000+0  14147-2 0  9991
2 25852  51.9999   4.6888 0012378 243.5229 116.4302 11.19068123163782
GLOBALSTAR M051         
1 25853U 99037C   26062.35489608 -.00000054  00000+0  43065-3 0  9990
2 25853  51.9780 135.6813 0000751 131.0282 229.0594 11.42200291162004
GLOBALSTAR M030         
1 25854U 99037D   26061.99475346 -.00000099  00000+0 -50406-3 0  9991
2 25854  51.9873 286.1983 0004212 129.9466 230.1721 11.55104172179956
GLOBALSTAR M048         
1 25872U 99041A   26062.39733488 -.00000048  00000+0  58347-3 0  9990
2 25872  51.9363  80.6302 0013184 272.6841 196.4111 11.33862638154384
GLOBALSTAR M026         
1 25873U 99041B   26062.08990893  .00000043  00000+0  39433-2 0  9990
2 25873  52.0033 312.8157 0002092 357.2788 152.5756 11.06841797177156
GLOBALSTAR M043         
1 25874U 99041C   26062.75214104 -.00000073  00000+0 -13681-3 0  9992
2 25874  51.9381 197.7735 0013499  38.1418 110.3055 11.25697858152101
GLOBALSTAR M028         
1 25875U 99041D   26062.66523234 -.00000063  00000+0  24091-3 0  9995
2 25875  51.9621 139.3374 0062893 274.7523  84.6158 12.50596776222647
